{
  "type": "FeatureCollection",
  "features": [
    {
      "type": "Feature",
      "properties": {
        "norad_id": 27954,
        "name": "GALAXY 13 (HORIZONS-1)",
        "group": "intelsat",
        "lat": -0.003394128233638436,
        "lon": -94.7994733444369,
        "alt_km": 35777.09363358959,
        "timestamp": "2025-12-05T22:40:48.226536+00:00",
        "meta_object_name": "GALAXY 13 (HORIZONS-1)",
        "meta_object_id": "2003-044A",
        "meta_epoch": "2025-12-05T06:08:09.778272",
        "meta_mean_motion": 1.00273342,
        "meta_eccentricity": 0.0002063,
        "meta_inclination": 0.9162,
        "meta_ra_of_asc_node": 86.5663,
        "meta_arg_of_pericenter": 164.1755,
        "meta_mean_anomaly": 125.6214,
        "meta_ephemeris_type": 0,
        "meta_classification_type": "U",
        "meta_norad_cat_id": 27954,
        "meta_element_set_no": 999,
        "meta_rev_at_epoch": 4462,
        "meta_bstar": 0,
        "meta_mean_motion_dot": 1.44e-06,
        "meta_mean_motion_ddot": 0,
        "tle_line1": "1 27954U 03044A   25339.25566873  .00000144  00000+0  00000+0 0  9999",
        "tle_line2": "2 27954   0.9162  86.5663 0002063 164.1755 125.6214  1.00273342 44620"
      },
      "geometry": {
        "type": "Point",
        "coordinates": [
          -94.7994733444369,
          -0.003394128233638436
        ]
      }
    },
    {
      "type": "Feature",
      "properties": {
        "norad_id": 28358,
        "name": "INTELSAT 10-02",
        "group": "intelsat",
        "lat": 0.010816223225227326,
        "lon": 54.194730551408014,
        "alt_km": 35789.697224339776,
        "timestamp": "2025-12-05T22:40:48.226549+00:00",
        "meta_object_name": "INTELSAT 10-02",
        "meta_object_id": "2004-022A",
        "meta_epoch": "2025-12-04T23:59:43.819872",
        "meta_mean_motion": 1.00270714,
        "meta_eccentricity": 0.00011376,
        "meta_inclination": 0.0405,
        "meta_ra_of_asc_node": 80.5875,
        "meta_arg_of_pericenter": 199.5905,
        "meta_mean_anomaly": 152.825,
        "meta_ephemeris_type": 0,
        "meta_classification_type": "U",
        "meta_norad_cat_id": 28358,
        "meta_element_set_no": 999,
        "meta_rev_at_epoch": 7860,
        "meta_bstar": 0,
        "meta_mean_motion_dot": 2e-08,
        "meta_mean_motion_ddot": 0,
        "tle_line1": "1 28358U 04022A   25338.99981273  .00000002  00000+0  00000+0 0  9993",
        "tle_line2": "2 28358   0.0405  80.5875 0001137 199.5905 152.8250  1.00270714 78606"
      },
      "geometry": {
        "type": "Point",
        "coordinates": [
          54.194730551408014,
          0.010816223225227326
        ]
      }
    },
    {
      "type": "Feature",
      "properties": {
        "norad_id": 28626,
        "name": "XM-3 (RHYTHM)",
        "group": "intelsat",
        "lat": 0.11060540891119082,
        "lon": -158.27025885196986,
        "alt_km": 36162.812008000954,
        "timestamp": "2025-12-05T22:40:48.226561+00:00",
        "meta_object_name": "XM-3 (RHYTHM)",
        "meta_object_id": "2005-008A",
        "meta_epoch": "2025-12-05T06:22:38.609760",
        "meta_mean_motion": 0.98954793,
        "meta_eccentricity": 0.00010619,
        "meta_inclination": 0.1543,
        "meta_ra_of_asc_node": 80.9692,
        "meta_arg_of_pericenter": 260.0086,
        "meta_mean_anomaly": 338.7855,
        "meta_ephemeris_type": 0,
        "meta_classification_type": "U",
        "meta_norad_cat_id": 28626,
        "meta_element_set_no": 999,
        "meta_rev_at_epoch": 4067,
        "meta_bstar": 0,
        "meta_mean_motion_dot": -2.63e-06,
        "meta_mean_motion_ddot": 0,
        "tle_line1": "1 28626U 05008A   25339.26572465 -.00000263  00000+0  00000+0 0  9996",
        "tle_line2": "2 28626   0.1543  80.9692 0001061 260.0086 338.7855  0.98954793 40673"
      },
      "geometry": {
        "type": "Point",
        "coordinates": [
          -158.27025885196986,
          0.11060540891119082
        ]
      }
    },
    {
      "type": "Feature",
      "properties": {
        "norad_id": 28659,
        "name": "DIRECTV 8",
        "group": "intelsat",
        "lat": -0.025093542268891905,
        "lon": -63.84319753369395,
        "alt_km": 35776.168547344816,
        "timestamp": "2025-12-05T22:40:48.226593+00:00",
        "meta_object_name": "DIRECTV 8",
        "meta_object_id": "2005-019A",
        "meta_epoch": "2025-12-05T06:16:53.940288",
        "meta_mean_motion": 1.00270759,
        "meta_eccentricity": 0.00032547,
        "meta_inclination": 0.0184,
        "meta_ra_of_asc_node": 330.5151,
        "meta_arg_of_pericenter": 283.124,
        "meta_mean_anomaly": 155.8596,
        "meta_ephemeris_type": 0,
        "meta_classification_type": "U",
        "meta_norad_cat_id": 28659,
        "meta_element_set_no": 999,
        "meta_rev_at_epoch": 7512,
        "meta_bstar": 0,
        "meta_mean_motion_dot": 1.3e-07,
        "meta_mean_motion_ddot": 0,
        "tle_line1": "1 28659U 05019A   25339.26173542  .00000013  00000+0  00000+0 0  9999",
        "tle_line2": "2 28659   0.0184 330.5151 0003254 283.1240 155.8596  1.00270759 75122"
      },
      "geometry": {
        "type": "Point",
        "coordinates": [
          -63.84319753369395,
          -0.025093542268891905
        ]
      }
    },
    {
      "type": "Feature",
      "properties": {
        "norad_id": 28702,
        "name": "GALAXY 28 (G-28)",
        "group": "intelsat",
        "lat": -2.5471138312109782,
        "lon": -33.50155532022555,
        "alt_km": 35783.10575569242,
        "timestamp": "2025-12-05T22:40:48.226607+00:00",
        "meta_object_name": "GALAXY 28 (G-28)",
        "meta_object_id": "2005-022A",
        "meta_epoch": "2025-12-05T03:00:12.788064",
        "meta_mean_motion": 1.00272008,
        "meta_eccentricity": 0.00026403,
        "meta_inclination": 2.7992,
        "meta_ra_of_asc_node": 81.3702,
        "meta_arg_of_pericenter": 172.2374,
        "meta_mean_anomaly": 136.9404,
        "meta_ephemeris_type": 0,
        "meta_classification_type": "U",
        "meta_norad_cat_id": 28702,
        "meta_element_set_no": 999,
        "meta_rev_at_epoch": 5002,
        "meta_bstar": 0,
        "meta_mean_motion_dot": -1.76e-06,
        "meta_mean_motion_ddot": 0,
        "tle_line1": "1 28702U 05022A   25339.12514801 -.00000176  00000+0  00000+0 0  9995",
        "tle_line2": "2 28702   2.7992  81.3702 0002640 172.2374 136.9404  1.00272008 50023"
      },
      "geometry": {
        "type": "Point",
        "coordinates": [
          -33.50155532022555,
          -2.5471138312109782
        ]
      }
    },
    {
      "type": "Feature",
      "properties": {
        "norad_id": 29236,
        "name": "GALAXY 16 (G-16)",
        "group": "intelsat",
        "lat": 0.0010033640227664843,
        "lon": -43.79924145437793,
        "alt_km": 35779.539795859535,
        "timestamp": "2025-12-05T22:40:48.226620+00:00",
        "meta_object_name": "GALAXY 16 (G-16)",
        "meta_object_id": "2006-023A",
        "meta_epoch": "2025-12-05T04:26:38.705280",
        "meta_mean_motion": 1.00271125,
        "meta_eccentricity": 0.00029875,
        "meta_inclination": 0.0254,
        "meta_ra_of_asc_node": 207.5655,
        "meta_arg_of_pericenter": 50.8444,
        "meta_mean_anomaly": 143.4894,
        "meta_ephemeris_type": 0,
        "meta_classification_type": "U",
        "meta_norad_cat_id": 29236,
        "meta_element_set_no": 999,
        "meta_rev_at_epoch": 7102,
        "meta_bstar": 0,
        "meta_mean_motion_dot": -1.15e-06,
        "meta_mean_motion_ddot": 0,
        "tle_line1": "1 29236U 06023A   25339.18517020 -.00000115  00000+0  00000+0 0  9995",
        "tle_line2": "2 29236   0.0254 207.5655 0002987  50.8444 143.4894  1.00271125 71028"
      },
      "geometry": {
        "type": "Point",
        "coordinates": [
          -43.79924145437793,
          0.0010033640227664843
        ]
      }
    },
    {
      "type": "Feature",
      "properties": {
        "norad_id": 29494,
        "name": "DIRECTV 9S",
        "group": "intelsat",
        "lat": -1.4971518467845177,
        "lon": -46.008888542496365,
        "alt_km": 35779.58449089506,
        "timestamp": "2025-12-05T22:40:48.226632+00:00",
        "meta_object_name": "DIRECTV 9S",
        "meta_object_id": "2006-043A",
        "meta_epoch": "2025-12-05T04:26:38.705280",
        "meta_mean_motion": 1.00270516,
        "meta_eccentricity": 0.00032569,
        "meta_inclination": 1.9195,
        "meta_ra_of_asc_node": 83.2899,
        "meta_arg_of_pericenter": 171.4637,
        "meta_mean_anomaly": 144.9464,
        "meta_ephemeris_type": 0,
        "meta_classification_type": "U",
        "meta_norad_cat_id": 29494,
        "meta_element_set_no": 999,
        "meta_rev_at_epoch": 4943,
        "meta_bstar": 0,
        "meta_mean_motion_dot": -1.02e-06,
        "meta_mean_motion_ddot": 0,
        "tle_line1": "1 29494U 06043A   25339.18517020 -.00000102  00000+0  00000+0 0  9999",
        "tle_line2": "2 29494   1.9195  83.2899 0003256 171.4637 144.9464  1.00270516 49433"
      },
      "geometry": {
        "type": "Point",
        "coordinates": [
          -46.008888542496365,
          -1.4971518467845177
        ]
      }
    }
  ]
}